[
  {
    "COMMENT": "GENERATED VIA SPACETRACK.ORG API",
    "ORIGINATOR": "18 SPCS",
    "NORAD_CAT_ID": "46984",
    "OBJECT_NAME": "S6 MICHAEL FREILICH",
    "OBJECT_TYPE": "PAYLOAD",
    "CLASSIFICATION_TYPE": "U",
    "INTLDES": "20086A",
    "EPOCH": "2023-05-09 22:54:24",
    "EPOCH_MICROSECONDS": "740064",
    "MEAN_MOTION": "12.80931304",
    "ECCENTRICITY": "0.0007939",
    "INCLINATION": "66.0448",
    "RA_OF_ASC_NODE": "330.8762",
    "ARG_OF_PERICENTER": "265.1729",
    "MEAN_ANOMALY": "94.8386",
    "EPHEMERIS_TYPE": "0",
    "ELEMENT_SET_NO": "999",
    "REV_AT_EPOCH": "11518",
    "BSTAR": "0",
    "MEAN_MOTION_DOT": "-0.00000061",
    "MEAN_MOTION_DDOT": "0",
    "FILE": "3904555",
    "TLE_LINE0": "0 S6 MICHAEL FREILICH",
    "TLE_LINE1": "1 46984U 20086A   23129.95445301 -.00000061  00000-0  00000-0 0  9993",
    "TLE_LINE2": "2 46984  66.0448 330.8762 0007939 265.1729  94.8386 12.80931304115185",
    "OBJECT_ID": "2020-086A",
    "OBJECT_NUMBER": "46984",
    "SEMIMAJOR_AXIS": "7715.865",
    "PERIOD": "112.418",
    "APOGEE": "1343.856",
    "PERIGEE": "1331.604",
    "DECAYED": "0"
  },
  {
    "COMMENT": "GENERATED VIA SPACETRACK.ORG API",
    "ORIGINATOR": "18 SPCS",
    "NORAD_CAT_ID": "46984",
    "OBJECT_NAME": "S6 MICHAEL FREILICH",
    "OBJECT_TYPE": "PAYLOAD",
    "CLASSIFICATION_TYPE": "U",
    "INTLDES": "20086A",
    "EPOCH": "2023-05-10 19:31:08",
    "EPOCH_MICROSECONDS": "28768",
    "MEAN_MOTION": "12.80931346",
    "ECCENTRICITY": "0.0007969",
    "INCLINATION": "66.0448",
    "RA_OF_ASC_NODE": "329.0927",
    "ARG_OF_PERICENTER": "264.7812",
    "MEAN_ANOMALY": "95.2306",
    "EPHEMERIS_TYPE": "0",
    "ELEMENT_SET_NO": "999",
    "REV_AT_EPOCH": "11529",
    "BSTAR": "0",
    "MEAN_MOTION_DOT": "-0.00000061",
    "MEAN_MOTION_DDOT": "0",
    "FILE": "3904830",
    "TLE_LINE0": "0 S6 MICHAEL FREILICH",
    "TLE_LINE1": "1 46984U 20086A   23130.81328737 -.00000061  00000-0  00000-0 0  9993",
    "TLE_LINE2": "2 46984  66.0448 329.0927 0007969 264.7812  95.2306 12.80931346115294",
    "OBJECT_ID": "2020-086A",
    "OBJECT_NUMBER": "46984",
    "SEMIMAJOR_AXIS": "7715.865",
    "PERIOD": "112.418",
    "APOGEE": "1343.879",
    "PERIGEE": "1331.581",
    "DECAYED": "0"
  },
  {
    "COMMENT": "GENERATED VIA SPACETRACK.ORG API",
    "ORIGINATOR": "18 SPCS",
    "NORAD_CAT_ID": "46984",
    "OBJECT_NAME": "S6 MICHAEL FREILICH",
    "OBJECT_TYPE": "PAYLOAD",
    "CLASSIFICATION_TYPE": "U",
    "INTLDES": "20086A",
    "EPOCH": "2023-05-10 21:23:33",
    "EPOCH_MICROSECONDS": "759744",
    "MEAN_MOTION": "12.8093135",
    "ECCENTRICITY": "0.0007967",
    "INCLINATION": "66.0448",
    "RA_OF_ASC_NODE": "328.9306",
    "ARG_OF_PERICENTER": "264.7682",
    "MEAN_ANOMALY": "95.2425",
    "EPHEMERIS_TYPE": "0",
    "ELEMENT_SET_NO": "999",
    "REV_AT_EPOCH": "11530",
    "BSTAR": "0",
    "MEAN_MOTION_DOT": "-0.00000061",
    "MEAN_MOTION_DDOT": "0",
    "FILE": "3905210",
    "TLE_LINE0": "0 S6 MICHAEL FREILICH",
    "TLE_LINE1": "1 46984U 20086A   23130.89136296 -.00000061  00000-0  00000-0 0  9998",
    "TLE_LINE2": "2 46984  66.0448 328.9306 0007967 264.7682  95.2425 12.80931350115305",
    "OBJECT_ID": "2020-086A",
    "OBJECT_NUMBER": "46984",
    "SEMIMAJOR_AXIS": "7715.865",
    "PERIOD": "112.418",
    "APOGEE": "1343.877",
    "PERIGEE": "1331.582",
    "DECAYED": "0"
  },
  {
    "COMMENT": "GENERATED VIA SPACETRACK.ORG API",
    "ORIGINATOR": "18 SPCS",
    "NORAD_CAT_ID": "46984",
    "OBJECT_NAME": "S6 MICHAEL FREILICH",
    "OBJECT_TYPE": "PAYLOAD",
    "CLASSIFICATION_TYPE": "U",
    "INTLDES": "20086A",
    "EPOCH": "2023-05-11 14:15:25",
    "EPOCH_MICROSECONDS": "551936",
    "MEAN_MOTION": "12.80931414",
    "ECCENTRICITY": "0.000795",
    "INCLINATION": "66.0451",
    "RA_OF_ASC_NODE": "327.4716",
    "ARG_OF_PERICENTER": "264.5565",
    "MEAN_ANOMALY": "95.4552",
    "EPHEMERIS_TYPE": "0",
    "ELEMENT_SET_NO": "999",
    "REV_AT_EPOCH": "11539",
    "BSTAR": "0",
    "MEAN_MOTION_DOT": "-0.00000061",
    "MEAN_MOTION_DDOT": "0",
    "FILE": "3905475",
    "TLE_LINE0": "0 S6 MICHAEL FREILICH",
    "TLE_LINE1": "1 46984U 20086A   23131.59404574 -.00000061  00000-0  00000+0 0  9992",
    "TLE_LINE2": "2 46984  66.0451 327.4716 0007950 264.5565  95.4552 12.80931414115391",
    "OBJECT_ID": "2020-086A",
    "OBJECT_NUMBER": "46984",
    "SEMIMAJOR_AXIS": "7715.864",
    "PERIOD": "112.418",
    "APOGEE": "1343.864",
    "PERIGEE": "1331.595",
    "DECAYED": "0"
  },
  {
    "COMMENT": "GENERATED VIA SPACETRACK.ORG API",
    "ORIGINATOR": "18 SPCS",
    "NORAD_CAT_ID": "46984",
    "OBJECT_NAME": "S6 MICHAEL FREILICH",
    "OBJECT_TYPE": "PAYLOAD",
    "CLASSIFICATION_TYPE": "U",
    "INTLDES": "20086A",
    "EPOCH": "2023-05-11 14:15:25",
    "EPOCH_MICROSECONDS": "551936",
    "MEAN_MOTION": "12.80931414",
    "ECCENTRICITY": "0.000795",
    "INCLINATION": "66.0451",
    "RA_OF_ASC_NODE": "327.4716",
    "ARG_OF_PERICENTER": "264.5565",
    "MEAN_ANOMALY": "95.4552",
    "EPHEMERIS_TYPE": "0",
    "ELEMENT_SET_NO": "999",
    "REV_AT_EPOCH": "11539",
    "BSTAR": "0",
    "MEAN_MOTION_DOT": "-0.00000061",
    "MEAN_MOTION_DDOT": "0",
    "FILE": "3905576",
    "TLE_LINE0": "0 S6 MICHAEL FREILICH",
    "TLE_LINE1": "1 46984U 20086A   23131.59404574 -.00000061  00000-0  00000-0 0  9993",
    "TLE_LINE2": "2 46984  66.0451 327.4716 0007950 264.5565  95.4552 12.80931414115391",
    "OBJECT_ID": "2020-086A",
    "OBJECT_NUMBER": "46984",
    "SEMIMAJOR_AXIS": "7715.864",
    "PERIOD": "112.418",
    "APOGEE": "1343.864",
    "PERIGEE": "1331.595",
    "DECAYED": "0"
  },
  {
    "COMMENT": "GENERATED VIA SPACETRACK.ORG API",
    "ORIGINATOR": "18 SPCS",
    "NORAD_CAT_ID": "46984",
    "OBJECT_NAME": "S6 MICHAEL FREILICH",
    "OBJECT_TYPE": "PAYLOAD",
    "CLASSIFICATION_TYPE": "U",
    "INTLDES": "20086A",
    "EPOCH": "2023-05-12 05:14:51",
    "EPOCH_MICROSECONDS": "570816",
    "MEAN_MOTION": "12.80931422",
    "ECCENTRICITY": "0.0007963",
    "INCLINATION": "66.0454",
    "RA_OF_ASC_NODE": "326.1749",
    "ARG_OF_PERICENTER": "264.1606",
    "MEAN_ANOMALY": "95.8502",
    "EPHEMERIS_TYPE": "0",
    "ELEMENT_SET_NO": "999",
    "REV_AT_EPOCH": "11547",
    "BSTAR": "0",
    "MEAN_MOTION_DOT": "-0.00000061",
    "MEAN_MOTION_DDOT": "0",
    "FILE": "3905921",
    "TLE_LINE0": "0 S6 MICHAEL FREILICH",
    "TLE_LINE1": "1 46984U 20086A   23132.21865244 -.00000061  00000-0  00000-0 0  9998",
    "TLE_LINE2": "2 46984  66.0454 326.1749 0007963 264.1606  95.8502 12.80931422115479",
    "OBJECT_ID": "2020-086A",
    "OBJECT_NUMBER": "46984",
    "SEMIMAJOR_AXIS": "7715.864",
    "PERIOD": "112.418",
    "APOGEE": "1343.874",
    "PERIGEE": "1331.585",
    "DECAYED": "0"
  },
  {
    "COMMENT": "GENERATED VIA SPACETRACK.ORG API",
    "ORIGINATOR": "18 SPCS",
    "NORAD_CAT_ID": "46984",
    "OBJECT_NAME": "S6 MICHAEL FREILICH",
    "OBJECT_TYPE": "PAYLOAD",
    "CLASSIFICATION_TYPE": "U",
    "INTLDES": "20086A",
    "EPOCH": "2023-05-12 16:29:26",
    "EPOCH_MICROSECONDS": "98368",
    "MEAN_MOTION": "12.80931495",
    "ECCENTRICITY": "0.000794",
    "INCLINATION": "66.0458",
    "RA_OF_ASC_NODE": "325.2026",
    "ARG_OF_PERICENTER": "263.668",
    "MEAN_ANOMALY": "96.3439",
    "EPHEMERIS_TYPE": "0",
    "ELEMENT_SET_NO": "999",
    "REV_AT_EPOCH": "11553",
    "BSTAR": "0",
    "MEAN_MOTION_DOT": "-0.00000061",
    "MEAN_MOTION_DDOT": "0",
    "FILE": "3906242",
    "TLE_LINE0": "0 S6 MICHAEL FREILICH",
    "TLE_LINE1": "1 46984U 20086A   23132.68710762 -.00000061  00000-0  00000+0 0  9992",
    "TLE_LINE2": "2 46984  66.0458 325.2026 0007940 263.6680  96.3439 12.80931495115534",
    "OBJECT_ID": "2020-086A",
    "OBJECT_NUMBER": "46984",
    "SEMIMAJOR_AXIS": "7715.864",
    "PERIOD": "112.418",
    "APOGEE": "1343.856",
    "PERIGEE": "1331.603",
    "DECAYED": "0"
  },
  {
    "COMMENT": "GENERATED VIA SPACETRACK.ORG API",
    "ORIGINATOR": "18 SPCS",
    "NORAD_CAT_ID": "46984",
    "OBJECT_NAME": "S6 MICHAEL FREILICH",
    "OBJECT_TYPE": "PAYLOAD",
    "CLASSIFICATION_TYPE": "U",
    "INTLDES": "20086A",
    "EPOCH": "2023-05-12 16:29:26",
    "EPOCH_MICROSECONDS": "98368",
    "MEAN_MOTION": "12.80931495",
    "ECCENTRICITY": "0.000794",
    "INCLINATION": "66.0458",
    "RA_OF_ASC_NODE": "325.2026",
    "ARG_OF_PERICENTER": "263.668",
    "MEAN_ANOMALY": "96.3439",
    "EPHEMERIS_TYPE": "0",
    "ELEMENT_SET_NO": "999",
    "REV_AT_EPOCH": "11553",
    "BSTAR": "0",
    "MEAN_MOTION_DOT": "-0.00000061",
    "MEAN_MOTION_DDOT": "0",
    "FILE": "3906381",
    "TLE_LINE0": "0 S6 MICHAEL FREILICH",
    "TLE_LINE1": "1 46984U 20086A   23132.68710762 -.00000061  00000-0  00000-0 0  9993",
    "TLE_LINE2": "2 46984  66.0458 325.2026 0007940 263.6680  96.3439 12.80931495115534",
    "OBJECT_ID": "2020-086A",
    "OBJECT_NUMBER": "46984",
    "SEMIMAJOR_AXIS": "7715.864",
    "PERIOD": "112.418",
    "APOGEE": "1343.856",
    "PERIGEE": "1331.603",
    "DECAYED": "0"
  }
]